OBJECT_NAME,OBJECT_ID,EPOCH,MEAN_MOTION,ECCENTRICITY,INCLINATION,RA_OF_ASC_NODE,ARG_OF_PERICENTER,MEAN_ANOMALY,EPHEMERIS_TYPE,CLASSIFICATION_TYPE,NORAD_CAT_ID,ELEMENT_SET_NO,REV_AT_EPOCH,BSTAR,MEAN_MOTION_DOT,MEAN_MOTION_DDOT
ONEWEB-0410,2022-012A,2026-06-06T12:14:47.606208,13.17647780,.0003149,87.9155,7.9797,83.6374,276.5116,0,U,51622,999,21229,-.22932041E-4,.4E-7,0
ONEWEB-0411,2022-012B,2026-06-06T09:34:58.611936,13.10374962,.00013261,87.8855,38.4141,99.1376,260.9901,0,U,51623,999,20787,-.16580969E-2,-.566E-5,0
ONEWEB-0415,2022-012C,2026-06-06T09:30:12.093120,13.10374491,.00016545,87.8849,38.4148,89.8748,270.2569,0,U,51624,999,20787,-.20840755E-2,-.715E-5,0
ONEWEB-0416,2022-012D,2026-06-06T09:46:57.657792,13.10385376,.00018942,87.8846,38.4305,96.4012,263.7331,0,U,51625,999,20791,-.10806575E-2,-.365E-5,0
ONEWEB-0422,2022-012E,2026-06-06T12:29:23.071488,13.17648634,.00013113,87.9149,7.9797,72.7999,287.3276,0,U,51626,999,21240,-.51593747E-3,-.187E-5,0
ONEWEB-0423,2022-012F,2026-06-06T12:19:40.648224,13.17649492,.00019111,87.9147,7.9866,83.0066,277.1283,0,U,51627,999,21229,.17010554E-4,.19E-6,0
ONEWEB-0425,2022-012G,2026-06-06T10:01:19.161696,13.10376638,.00021391,87.8844,38.4119,79.9723,280.1646,0,U,51628,999,20791,.1341114E-2,.481E-5,0
ONEWEB-0428,2022-012H,2026-06-06T09:32:35.334816,13.10374884,.00017318,87.8845,38.4235,80.1349,279.9974,0,U,51629,999,20787,-.19391703E-2,-.664E-5,0
ONEWEB-0431,2022-012J,2026-06-06T08:49:23.053152,13.10369699,.00012807,87.8841,38.4214,97.4139,262.7134,0,U,51630,999,20792,.57873174E-3,.215E-5,0
ONEWEB-0434,2022-012K,2026-06-06T10:06:17.373024,13.10373646,.00023843,87.8858,38.4338,82.0679,278.0719,0,U,51631,999,20791,.10083257E-2,.365E-5,0
ONEWEB-0435,2022-012L,2026-06-06T02:58:11.919648,13.10380056,.00016385,87.8850,38.4817,90.0166,270.1149,0,U,51632,999,20786,-.79303608E-2,-.2755E-4,0
ONEWEB-0436,2022-012M,2026-06-06T12:07:30.239904,13.17648758,.00016146,87.9150,7.9702,86.8394,273.2922,0,U,51633,999,21227,-.53688453E-3,-.196E-5,0
ONEWEB-0438,2022-012N,2026-06-06T04:24:15.927552,13.10376168,.0002015,87.8843,38.4726,81.6693,278.4663,0,U,51634,999,20790,.26322886E-3,.105E-5,0
ONEWEB-0439,2022-012P,2026-06-06T09:58:54.719040,13.10375456,.00018286,87.8844,38.4135,79.2304,280.9029,0,U,51635,999,20791,.53071138E-3,.198E-5,0
ONEWEB-0442,2022-012Q,2026-06-06T11:56:34.765440,13.17648341,.00024484,87.9140,8.0051,88.1869,271.9543,0,U,51636,999,21226,-.91704858E-4,-.23E-6,0
ONEWEB-0443,2022-012R,2026-06-06T12:24:30.910752,13.17648825,.00019261,87.9143,8.0020,75.3560,284.7785,0,U,51637,999,21231,.27667081E-4,.24E-6,0
ONEWEB-0444,2022-012S,2026-06-06T09:44:33.540000,13.10376411,.00019102,87.8841,38.4147,76.7361,283.3980,0,U,51638,999,20792,-.82640006E-3,-.276E-5,0
ONEWEB-0445,2022-012T,2026-06-06T02:55:50.054304,13.10372953,.00017196,87.8850,38.4581,87.4315,272.7009,0,U,51639,999,20789,.19990115E-2,.711E-5,0
ONEWEB-0446,2022-012U,2026-06-06T09:42:09.478368,13.10376161,.00017964,87.8849,38.4309,87.9437,272.1896,0,U,51640,999,20791,-.13147631E-2,-.446E-5,0
ONEWEB-0448,2022-012V,2026-06-06T09:49:21.077472,13.10375620,.00017808,87.8845,38.4274,78.0993,282.0334,0,U,51641,999,20788,-.10041841E-4,.9E-7,0
ONEWEB-0449,2022-012W,2026-06-06T09:56:31.432416,13.10374997,.00022841,87.8873,38.4101,78.2499,281.8885,0,U,51642,999,20789,.72500384E-3,.266E-5,0
ONEWEB-0451,2022-012X,2026-06-06T12:02:39.776928,13.17648638,.00020539,87.9152,7.9678,84.5055,275.6311,0,U,51643,999,21225,-.2673962E-3,-.91E-6,0
ONEWEB-0452,2022-012Y,2026-06-06T08:21:31.094784,13.17650517,.00020118,87.9139,8.0367,76.2252,283.9104,0,U,51644,999,21224,.9882919E-4,.51E-6,0
ONEWEB-0456,2022-012AA,2026-06-06T10:10:50.562048,13.10375042,.00017028,87.8847,38.3966,74.4216,285.7099,0,U,51646,999,20793,.33507037E-3,.13E-5,0
ONEWEB-0457,2022-012AB,2026-06-06T09:37:10.022880,13.10373673,.0002013,87.8848,38.4198,91.6713,268.4645,0,U,51647,999,20793,-.12054271E-2,-.408E-5,0
ONEWEB-0458,2022-012AC,2026-06-06T10:08:29.557248,13.10395139,.0002072,87.8845,38.4028,75.6617,284.4741,0,U,51648,999,20789,.1462878E-2,.524E-5,0
ONEWEB-0461,2022-012AD,2026-06-06T12:31:47.875296,13.17647390,.00018647,87.9152,7.9781,91.0596,269.0749,0,U,51649,999,21248,-.24922268E-3,-.84E-6,0
ONEWEB-0463,2022-012AE,2026-06-06T12:05:05.208864,13.17648496,.00018953,87.9140,8.0055,93.3638,266.7711,0,U,51650,999,21226,-.48143268E-3,-.174E-5,0
ONEWEB-0464,2022-012AF,2026-06-06T10:03:41.912640,13.10374917,.00017881,87.8833,38.4260,72.1497,287.9825,0,U,51651,999,20791,.72931212E-3,.267E-5,0
ONEWEB-0468,2022-012AG,2026-06-06T10:13:15.951648,13.10372756,.00018304,87.8833,38.4182,72.8931,287.2396,0,U,51652,999,20789,.66775074E-3,.246E-5,0
