ONEWEB-0410             
1 51622U 22012A   26157.51027322  .00000004  00000+0 -22932-4 0  9992
2 51622  87.9155   7.9797 0003149  83.6374 276.5116 13.17647780212298
ONEWEB-0411             
1 51623U 22012B   26157.39928949 -.00000566  00000+0 -16581-2 0  9999
2 51623  87.8855  38.4141 0001326  99.1376 260.9901 13.10374962207875
ONEWEB-0415             
1 51624U 22012C   26157.39597330 -.00000715  00000+0 -20841-2 0  9996
2 51624  87.8849  38.4148 0001654  89.8748 270.2569 13.10374491207870
ONEWEB-0416             
1 51625U 22012D   26157.40761178 -.00000365  00000+0 -10807-2 0  9994
2 51625  87.8846  38.4305 0001894  96.4012 263.7331 13.10385376207910
ONEWEB-0422             
1 51626U 22012E   26157.52040592 -.00000187  00000+0 -51594-3 0  9999
2 51626  87.9149   7.9797 0001311  72.7999 287.3276 13.17648634212405
ONEWEB-0423             
1 51627U 22012F   26157.51366491  .00000019  00000+0  17011-4 0  9997
2 51627  87.9147   7.9866 0001911  83.0066 277.1283 13.17649492212292
ONEWEB-0425             
1 51628U 22012G   26157.41758289  .00000481  00000+0  13411-2 0  9998
2 51628  87.8844  38.4119 0002139  79.9723 280.1646 13.10376638207915
ONEWEB-0428             
1 51629U 22012H   26157.39763119 -.00000664  00000+0 -19392-2 0  9993
2 51629  87.8845  38.4235 0001731  80.1349 279.9974 13.10374884207877
ONEWEB-0431             
1 51630U 22012J   26157.36762793  .00000215  00000+0  57873-3 0  9996
2 51630  87.8841  38.4214 0001280  97.4139 262.7134 13.10369699207921
ONEWEB-0434             
1 51631U 22012K   26157.42103441  .00000365  00000+0  10083-2 0  9990
2 51631  87.8858  38.4338 0002384  82.0679 278.0719 13.10373646207917
ONEWEB-0435             
1 51632U 22012L   26157.12374907 -.00002755  00000+0 -79304-2 0  9993
2 51632  87.8850  38.4817 0001638  90.0166 270.1149 13.10380056207860
ONEWEB-0436             
1 51633U 22012M   26157.50521111 -.00000196  00000+0 -53688-3 0  9992
2 51633  87.9150   7.9702 0001614  86.8394 273.2922 13.17648758212276
ONEWEB-0438             
1 51634U 22012N   26157.18351768  .00000105  00000+0  26323-3 0  9990
2 51634  87.8843  38.4726 0002015  81.6693 278.4663 13.10376168207900
ONEWEB-0439             
1 51635U 22012P   26157.41591110  .00000198  00000+0  53071-3 0  9996
2 51635  87.8844  38.4135 0001828  79.2304 280.9029 13.10375456207913
ONEWEB-0442             
1 51636U 22012Q   26157.49762460 -.00000023  00000+0 -91705-4 0  9999
2 51636  87.9140   8.0051 0002448  88.1869 271.9543 13.17648341212266
ONEWEB-0443             
1 51637U 22012R   26157.51702443  .00000024  00000+0  27667-4 0  9993
2 51637  87.9143   8.0020 0001926  75.3560 284.7785 13.17648825212315
ONEWEB-0444             
1 51638U 22012S   26157.40594375 -.00000276  00000+0 -82640-3 0  9997
2 51638  87.8841  38.4147 0001910  76.7361 283.3980 13.10376411207929
ONEWEB-0445             
1 51639U 22012T   26157.12210711  .00000711  00000+0  19990-2 0  9995
2 51639  87.8850  38.4581 0001719  87.4315 272.7009 13.10372953207894
ONEWEB-0446             
1 51640U 22012U   26157.40427637 -.00000446  00000+0 -13148-2 0  9991
2 51640  87.8849  38.4309 0001796  87.9437 272.1896 13.10376161207913
ONEWEB-0448             
1 51641U 22012V   26157.40927173  .00000009  00000+0 -10042-4 0  9998
2 51641  87.8845  38.4274 0001780  78.0993 282.0334 13.10375620207884
ONEWEB-0449             
1 51642U 22012W   26157.41425269  .00000266  00000+0  72500-3 0  9999
2 51642  87.8873  38.4101 0002284  78.2499 281.8885 13.10374997207893
ONEWEB-0451             
1 51643U 22012X   26157.50184927 -.00000091  00000+0 -26740-3 0  9996
2 51643  87.9152   7.9678 0002053  84.5055 275.6311 13.17648638212251
ONEWEB-0452             
1 51644U 22012Y   26157.34827656  .00000051  00000+0  98829-4 0  9994
2 51644  87.9139   8.0367 0002011  76.2252 283.9104 13.17650517212245
ONEWEB-0456             
1 51646U 22012AA  26157.42419632  .00000130  00000+0  33507-3 0  9995
2 51646  87.8847  38.3966 0001702  74.4216 285.7099 13.10375042207932
ONEWEB-0457             
1 51647U 22012AB  26157.40081045 -.00000408  00000+0 -12054-2 0  9990
2 51647  87.8848  38.4198 0002013  91.6713 268.4645 13.10373673207934
ONEWEB-0458             
1 51648U 22012AC  26157.42256432  .00000524  00000+0  14629-2 0  9994
2 51648  87.8845  38.4028 0002072  75.6617 284.4741 13.10395139207895
ONEWEB-0461             
1 51649U 22012AD  26157.52208189 -.00000084  00000+0 -24922-3 0  9993
2 51649  87.9152   7.9781 0001864  91.0596 269.0749 13.17647390212485
ONEWEB-0463             
1 51650U 22012AE  26157.50353251 -.00000174  00000+0 -48143-3 0  9995
2 51650  87.9140   8.0055 0001895  93.3638 266.7711 13.17648496212263
ONEWEB-0464             
1 51651U 22012AF  26157.41923510  .00000267  00000+0  72931-3 0  9990
2 51651  87.8833  38.4260 0001788  72.1497 287.9825 13.10374917207910
ONEWEB-0468             
1 51652U 22012AG  26157.42587907  .00000246  00000+0  66775-3 0  9994
2 51652  87.8833  38.4182 0001830  72.8931 287.2396 13.10372756207894
